NORAD_CAT_ID,OBJECT_NAME,OBJECT_TYPE,EPOCH,MEAN_MOTION,ECCENTRICITY,INCLINATION,RA_OF_ASC_NODE,ARG_OF_PERICENTER,MEAN_ANOMALY,BSTAR,MEAN_MOTION_DOT,MEAN_MOTION_DDOT,TLE_LINE0,TLE_LINE1,TLE_LINE2,SEMIMAJOR_AXIS,PERIOD,APOGEE,PERIGEE,DECAYED
53979.0,STARLINK-5123,PAYLOAD,2024-01-08 11:03:04,15.08840563,0.0001588,53.2164,171.0822,96.3485,263.7688,2.1586e-05,5.6e-07,0.0,0 STARLINK-5123,1 53979U 22125R   24008.46046859  .00000056  00000-0  21586-4 0  9998,2 53979  53.2164 171.0822 0001588  96.3485 263.7688 15.08840563 70012,6917.879,95.438,540.842,538.645,0.0
53979.0,STARLINK-5123,PAYLOAD,2024-01-08 14:13:50,15.08840611,0.0001589,53.2165,170.4873,100.4529,259.6642,2.1201e-05,4.9e-07,0.0,0 STARLINK-5123,1 53979U 22125R   24008.59294820  .00000049  00000-0  21201-4 0  9991,2 53979  53.2165 170.4873 0001589 100.4529 259.6642 15.08840611 69969,6917.879,95.438,540.843,538.644,0.0
53979.0,STARLINK-5123,PAYLOAD,2024-01-08 17:24:37,15.08839863,0.0001539,53.2167,169.8927,100.5122,259.6043,7.4053e-06,-1.7e-06,0.0,0 STARLINK-5123,1 53979U 22125R   24008.72542882 -.00000170  00000-0  74053-5 0  9990,2 53979  53.2167 169.8927 0001539 100.5122 259.6043 15.08839863 69982,6917.881,95.438,540.81,538.681,0.0
53979.0,STARLINK-5123,PAYLOAD,2024-01-09 14:04:37,15.08842876,0.0001551,53.2174,166.0282,102.1462,257.9704,3.676e-05,2.97e-06,0.0,0 STARLINK-5123,1 53979U 22125R   24009.58654567  .00000297  00000-0  36760-4 0  9990,2 53979  53.2174 166.0282 0001551 102.1462 257.9704 15.08842876 70112,6917.872,95.437,540.81,538.664,0.0
53979.0,STARLINK-5123,PAYLOAD,2024-01-09 18:50:46,15.08843306,0.0001537,53.2177,165.1369,98.0959,262.0208,3.9393e-05,3.39e-06,0.0,0 STARLINK-5123,1 53979U 22125R   24009.78526521  .00000339  00000-0  39393-4 0  9992,2 53979  53.2177 165.1369 0001537  98.0959 262.0208 15.08843306 70215,6917.87,95.437,540.799,538.672,0.0
53979.0,STARLINK-5123,PAYLOAD,2024-01-10 10:44:39,15.08832517,0.0001578,53.2185,162.1623,99.651,260.466,7.8013e-07,-2.76e-06,0.0,0 STARLINK-5123,1 53979U 22125R   24010.44767417 -.00000276  00000-0  78013-6 0  9993,2 53979  53.2185 162.1623 0001578  99.6510 260.4660 15.08832517 70316,6917.903,95.438,540.86,538.677,0.0
53979.0,STARLINK-5123,PAYLOAD,2024-01-11 10:35:25,15.08842519,0.0001452,53.2185,157.7013,100.4807,259.6349,4.3206e-05,4e-06,0.0,0 STARLINK-5123,1 53979U 22125R   24011.44126853  .00000400  00000-0  43206-4 0  9999,2 53979  53.2185 157.7013 0001452 100.4807 259.6349 15.08842519 70463,6917.873,95.437,540.742,538.733,0.0
53979.0,STARLINK-5123,PAYLOAD,2024-01-11 13:46:11,15.08843986,0.0001542,53.2186,157.107,100.2847,259.8319,5.2046e-05,5.4e-06,0.0,0 STARLINK-5123,1 53979U 22125R   24011.57374744  .00000540  00000-0  52046-4 0  9994,2 53979  53.2186 157.1070 0001542 100.2847 259.8319 15.08843986 70416,6917.868,95.437,540.8,538.666,0.0
53979.0,STARLINK-5123,PAYLOAD,2024-01-11 18:32:20,15.08848992,0.0001423,53.2175,156.2137,96.8099,263.3055,9.0902e-05,1.159e-05,0.0,0 STARLINK-5123,1 53979U 22125R   24011.77246283  .00001159  00000-0  90902-4 0  9992,2 53979  53.2175 156.2137 0001423  96.8099 263.3055 15.08848992 70447,6917.853,95.437,540.702,538.733,0.0
53979.0,STARLINK-5123,PAYLOAD,2024-01-12 08:50:50,15.08833455,0.0001404,53.2173,153.537,92.0589,268.0564,2.7919e-05,1.56e-06,0.0,0 STARLINK-5123,1 53979U 22125R   24012.36863687  .00000156  00000-0  27919-4 0  9995,2 53979  53.2173 153.5370 0001404  92.0589 268.0564 15.08833455 70608,6917.9,95.438,540.737,538.794,0.0
53979.0,STARLINK-5123,PAYLOAD,2024-01-12 13:36:59,15.08839374,0.0001626,53.2172,152.6443,114.3794,245.7368,3.1822e-05,2.18e-06,0.0,0 STARLINK-5123,1 53979U 22125R   24012.56735287  .00000218  00000-0  31822-4 0  9998,2 53979  53.2172 152.6443 0001626 114.3794 245.7368 15.08839374 70565,6917.882,95.438,540.872,538.622,0.0
53979.0,STARLINK-5123,PAYLOAD,2024-01-12 18:23:08,15.08838212,0.000153,53.2175,151.7535,89.2998,270.8169,7.0169e-05,8.29e-06,0.0,0 STARLINK-5123,1 53979U 22125R   24012.76607445  .00000829  00000-0  70169-4 0  9999,2 53979  53.2175 151.7535 0001530  89.2998 270.8169 15.08838212 70591,6917.886,95.438,540.809,538.692,0.0
53979.0,STARLINK-5123,PAYLOAD,2024-01-13 13:27:46,15.08840668,0.0001581,53.2173,148.1865,85.5326,274.5847,1.1979e-05,-9.7e-07,0.0,0 STARLINK-5123,1 53979U 22125R   24013.56095716 -.00000097  00000-0  11979-4 0  9992,2 53979  53.2173 148.1865 0001581  85.5326 274.5847 15.08840668 70711,6917.878,95.438,540.837,538.65,0.0
53979.0,STARLINK-5123,PAYLOAD,2024-01-13 15:03:09,15.08841191,0.0001561,53.2176,147.8892,85.7245,274.3926,1.9806e-05,2.7e-07,0.0,0 STARLINK-5123,1 53979U 22125R   24013.62719667  .00000027  00000-0  19806-4 0  9996,2 53979  53.2176 147.8892 0001561  85.7245 274.3926 15.08841191 70796,6917.877,95.437,540.822,538.662,0.0
53979.0,STARLINK-5123,PAYLOAD,2024-01-14 14:53:56,15.08845904,0.0001264,53.2152,143.4264,99.7478,260.3657,0.00014341,1.996e-05,0.0,0 STARLINK-5123,1 53979U 22125R   24014.62079057  .00001996  00000-0  14341-3 0  9993,2 53979  53.2152 143.4264 0001264  99.7478 260.3657 15.08845904 70879,6917.862,95.437,540.602,538.853,0.0
53979.0,STARLINK-5123,PAYLOAD,2024-01-15 11:33:56,15.08877474,0.0001294,53.215,139.5635,61.9808,298.1314,-0.00033094,-5.556e-05,0.0,0 STARLINK-5123,1 53979U 22125R   24015.48190343 -.00005556  00000-0 -33094-3 0  9994,2 53979  53.2150 139.5635 0001294  61.9808 298.1314 15.08877474 71075,6917.766,95.435,540.526,538.736,0.0
53979.0,STARLINK-5123,PAYLOAD,2024-01-15 14:44:43,15.08851431,0.0001341,53.215,138.9661,88.4381,271.6765,0.00022454,3.289e-05,0.0,0 STARLINK-5123,1 53979U 22125R   24015.61439005  .00003289  00000-0  22454-3 0  9997,2 53979  53.2150 138.9661 0001341  88.4381 271.6765 15.08851431 71026,6917.845,95.437,540.638,538.783,0.0
53979.0,STARLINK-5123,PAYLOAD,2024-01-16 11:24:44,15.08833398,0.000136,53.2149,135.1016,79.4099,280.7046,-9.3609e-05,-1.777e-05,0.0,0 STARLINK-5123,1 53979U 22125R   24016.47552057 -.00001777  00000-0 -93609-4 0  9998,2 53979  53.2149 135.1016 0001360  79.4099 280.7046 15.08833398 71221,6917.901,95.438,540.706,538.825,0.0
53979.0,STARLINK-5123,PAYLOAD,2024-01-16 14:35:31,15.08836002,0.0001401,53.2159,134.5066,78.6534,281.4615,-3.2794e-05,-8.1e-06,0.0,0 STARLINK-5123,1 53979U 22125R   24016.60800268 -.00000810  00000-0 -32794-4 0  9998,2 53979  53.2159 134.5066 0001401  78.6534 281.4615 15.08836002 71170,6917.893,95.438,540.727,538.788,0.0
53979.0,STARLINK-5123,PAYLOAD,2024-01-16 17:46:17,15.08838761,0.0001374,53.2163,133.9102,86.0406,274.0743,-1.4054e-05,-5.12e-06,0.0,0 STARLINK-5123,1 53979U 22125R   24016.74047995 -.00000512  00000-0 -14054-4 0  9991,2 53979  53.2163 133.9102 0001374  86.0406 274.0743 15.08838761 71195,6917.884,95.438,540.7,538.799,0.0
53979.0,STARLINK-5123,PAYLOAD,2024-01-17 14:26:17,15.08850802,0.0001321,53.2171,130.0441,75.0188,285.0951,5.785e-05,6.33e-06,0.0,0 STARLINK-5123,1 53979U 22125R   24017.60159343  .00000633  00000-0  57850-4 0  9991,2 53979  53.2171 130.0441 0001321  75.0188 285.0951 15.08850802 71323,6917.847,95.437,540.626,538.799,0.0
53979.0,STARLINK-5123,PAYLOAD,2024-01-18 11:06:19,15.08834829,0.0001482,53.2176,126.1798,95.9607,264.1554,0.00015252,2.14e-05,0.0,0 STARLINK-5123,1 53979U 22125R   24018.46272351  .00002140  00000-0  15252-3 0  9995,2 53979  53.2176 126.1798 0001482  95.9607 264.1554 15.08834829 71524,6917.896,95.438,540.786,538.736,0.0
53979.0,STARLINK-5123,PAYLOAD,2024-01-18 12:41:42,15.08837445,0.0001662,53.2176,125.8814,108.0282,252.0891,0.0001725,2.458e-05,0.0,0 STARLINK-5123,1 53979U 22125R   24018.52896152  .00002458  00000-0  17250-3 0  9995,2 53979  53.2176 125.8814 0001662 108.0282 252.0891 15.08837445 71464,6917.888,95.438,540.903,538.603,0.0
53979.0,STARLINK-5123,PAYLOAD,2024-01-19 14:07:52,15.08851529,0.0001498,53.2169,121.1251,69.5846,290.5307,7.5306e-05,9.11e-06,0.0,0 STARLINK-5123,1 53979U 22125R   24019.58879806  .00000911  00000-0  75306-4 0  9998,2 53979  53.2169 121.1251 0001498  69.5846 290.5307 15.08851529 71620,6917.845,95.437,540.746,538.674,0.0
53979.0,STARLINK-5123,PAYLOAD,2024-01-20 10:47:53,15.08842109,0.0001783,53.2182,117.2613,68.1504,291.9678,2.5439e-06,-2.48e-06,0.0,0 STARLINK-5123,1 53979U 22125R   24020.44992727 -.00000248  00000-0  25439-5 0  9990,2 53979  53.2182 117.2613 0001783  68.1504 291.9678 15.08842109 71828,6917.874,95.437,540.972,538.505,0.0
53979.0,STARLINK-5123,PAYLOAD,2024-01-20 13:58:40,15.08840923,0.0001842,53.2183,116.6671,64.3054,295.8128,2.1753e-05,5.8e-07,0.0,0 STARLINK-5123,1 53979U 22125R   24020.58240771  .00000058  00000-0  21753-4 0  9992,2 53979  53.2183 116.6671 0001842  64.3054 295.8128 15.08840923 71779,6917.878,95.437,541.017,538.468,0.0
53979.0,STARLINK-5123,PAYLOAD,2024-01-21 12:14:03,15.0884342,0.0001818,53.2182,112.5032,61.8286,298.2889,4.6044e-05,4.45e-06,0.0,0 STARLINK-5123,1 53979U 22125R   24021.50976523  .00000445  00000-0  46044-4 0  9996,2 53979  53.2182 112.5032 0001818  61.8286 298.2889 15.08843420 71985,6917.87,95.437,540.993,538.477,0.0
53979.0,STARLINK-5123,PAYLOAD,2024-01-22 12:04:50,15.08839913,0.0001581,53.2166,108.0411,73.0713,287.0452,7.0343e-05,8.32e-06,0.0,0 STARLINK-5123,1 53979U 22125R   24022.50336509  .00000832  00000-0  70343-4 0  9990,2 53979  53.2166 108.0411 0001581  73.0713 287.0452 15.08839913 72069,6917.881,95.438,540.839,538.652,0.0
53979.0,STARLINK-5123,PAYLOAD,2024-01-23 11:55:37,15.08843703,0.000181,53.2183,103.5815,113.582,246.5363,7.8338e-05,9.59e-06,0.0,0 STARLINK-5123,1 53979U 22125R   24023.49696015  .00000959  00000-0  78338-4 0  9992,2 53979  53.2183 103.5815 0001810 113.5820 246.5363 15.08843703 72210,6917.869,95.437,540.986,538.482,0.0
53979.0,STARLINK-5123,PAYLOAD,2024-01-24 10:11:02,15.08824553,0.0001749,53.2186,99.4164,109.9865,250.1315,0.00010098,1.319e-05,0.0,0 STARLINK-5123,1 53979U 22125R   24024.42433317  .00001319  00000-0  10098-3 0  9999,2 53979  53.2186  99.4164 0001749 109.9865 250.1315 15.08824553 72425,6917.928,95.439,541.003,538.583,0.0
